[{"OBJECT_NAME":"FGRST (GLAST)","OBJECT_ID":"2008-029A","EPOCH":"2025-03-09T17:08:55.627872","MEAN_MOTION":15.20256191,"ECCENTRICITY":0.0008585,"INCLINATION":25.5814,"RA_OF_ASC_NODE":180.8977,"ARG_OF_PERICENTER":259.3134,"MEAN_ANOMALY":100.6437,"EPHEMERIS_TYPE":0,"CLASSIFICATION_TYPE":"U","NORAD_CAT_ID":33053,"ELEMENT_SET_NO":999,"REV_AT_EPOCH":92498,"BSTAR":0.00029451,"MEAN_MOTION_DOT":6.907e-5,"MEAN_MOTION_DDOT":0},{"OBJECT_NAME":"TDRS 11","OBJECT_ID":"2013-004A","EPOCH":"2025-03-09T20:45:42.037632","MEAN_MOTION":1.0027882,"ECCENTRICITY":0.0004462,"INCLINATION":2.9365,"RA_OF_ASC_NODE":20.4731,"ARG_OF_PERICENTER":16.7083,"MEAN_ANOMALY":267.815,"EPHEMERIS_TYPE":0,"CLASSIFICATION_TYPE":"U","NORAD_CAT_ID":39070,"ELEMENT_SET_NO":999,"REV_AT_EPOCH":4203,"BSTAR":0,"MEAN_MOTION_DOT":6.5e-7,"MEAN_MOTION_DDOT":0},{"OBJECT_NAME":"TDRS 12","OBJECT_ID":"2014-004A","EPOCH":"2025-03-09T17:57:58.330656","MEAN_MOTION":1.00276271,"ECCENTRICITY":0.0002544,"INCLINATION":3.6251,"RA_OF_ASC_NODE":9.7421,"ARG_OF_PERICENTER":258.8951,"MEAN_ANOMALY":127.5604,"EPHEMERIS_TYPE":0,"CLASSIFICATION_TYPE":"U","NORAD_CAT_ID":39504,"ELEMENT_SET_NO":999,"REV_AT_EPOCH":3962,"BSTAR":0,"MEAN_MOTION_DOT":-2.84e-6,"MEAN_MOTION_DDOT":0},{"OBJECT_NAME":"GPM-CORE","OBJECT_ID":"2014-009C","EPOCH":"2025-03-09T21:32:31.988544","MEAN_MOTION":15.44114724,"ECCENTRICITY":0.001269,"INCLINATION":64.9781,"RA_OF_ASC_NODE":63.3474,"ARG_OF_PERICENTER":270.79,"MEAN_ANOMALY":89.1786,"EPHEMERIS_TYPE":0,"CLASSIFICATION_TYPE":"U","NORAD_CAT_ID":39574,"ELEMENT_SET_NO":999,"REV_AT_EPOCH":62609,"BSTAR":0.00032795,"MEAN_MOTION_DOT":0.00014912,"MEAN_MOTION_DDOT":0},{"OBJECT_NAME":"MMS 1","OBJECT_ID":"2015-011A","EPOCH":"2025-03-09T22:00:01.999584","MEAN_MOTION":0.28280575,"ECCENTRICITY":0.8824319,"INCLINATION":61.5613,"RA_OF_ASC_NODE":357.8874,"ARG_OF_PERICENTER":157.3414,"MEAN_ANOMALY":352.593,"EPHEMERIS_TYPE":0,"CLASSIFICATION_TYPE":"U","NORAD_CAT_ID":40482,"ELEMENT_SET_NO":999,"REV_AT_EPOCH":136,"BSTAR":0,"MEAN_MOTION_DOT":-2.537e-5,"MEAN_MOTION_DDOT":0},{"OBJECT_NAME":"MMS 2","OBJECT_ID":"2015-011B","EPOCH":"2025-03-09T22:00:01.999584","MEAN_MOTION":0.28270083,"ECCENTRICITY":0.8823178,"INCLINATION":61.5261,"RA_OF_ASC_NODE":357.907,"ARG_OF_PERICENTER":157.3224,"MEAN_ANOMALY":352.5871,"EPHEMERIS_TYPE":0,"CLASSIFICATION_TYPE":"U","NORAD_CAT_ID":40483,"ELEMENT_SET_NO":999,"REV_AT_EPOCH":136,"BSTAR":0,"MEAN_MOTION_DOT":-2.537e-5,"MEAN_MOTION_DDOT":0},{"OBJECT_NAME":"MMS 3","OBJECT_ID":"2015-011C","EPOCH":"2025-03-09T22:00:01.999584","MEAN_MOTION":0.28270457,"ECCENTRICITY":0.8822327,"INCLINATION":61.5613,"RA_OF_ASC_NODE":357.8911,"ARG_OF_PERICENTER":157.3325,"MEAN_ANOMALY":352.5835,"EPHEMERIS_TYPE":0,"CLASSIFICATION_TYPE":"U","NORAD_CAT_ID":40484,"ELEMENT_SET_NO":999,"REV_AT_EPOCH":136,"BSTAR":0,"MEAN_MOTION_DOT":-2.536e-5,"MEAN_MOTION_DDOT":0},{"OBJECT_NAME":"MMS 4","OBJECT_ID":"2015-011D","EPOCH":"2025-03-09T22:00:01.999584","MEAN_MOTION":0.28238747,"ECCENTRICITY":0.8823664,"INCLINATION":61.5123,"RA_OF_ASC_NODE":357.9169,"ARG_OF_PERICENTER":157.2944,"MEAN_ANOMALY":343.0128,"EPHEMERIS_TYPE":0,"CLASSIFICATION_TYPE":"U","NORAD_CAT_ID":40485,"ELEMENT_SET_NO":999,"REV_AT_EPOCH":136,"BSTAR":0,"MEAN_MOTION_DOT":-2.539e-5,"MEAN_MOTION_DDOT":0},{"OBJECT_NAME":"TDRS 13","OBJECT_ID":"2017-047A","EPOCH":"2025-03-09T21:33:38.715264","MEAN_MOTION":1.00271383,"ECCENTRICITY":0.001181,"INCLINATION":3.4807,"RA_OF_ASC_NODE":350.8421,"ARG_OF_PERICENTER":103.2716,"MEAN_ANOMALY":25.6065,"EPHEMERIS_TYPE":0,"CLASSIFICATION_TYPE":"U","NORAD_CAT_ID":42915,"ELEMENT_SET_NO":999,"REV_AT_EPOCH":2769,"BSTAR":0,"MEAN_MOTION_DOT":-1.14e-6,"MEAN_MOTION_DDOT":0},{"OBJECT_NAME":"NOAA 20 (JPSS-1)","OBJECT_ID":"2017-073A","EPOCH":"2025-03-09T20:33:16.606080","MEAN_MOTION":14.19566906,"ECCENTRICITY":0.0001531,"INCLINATION":98.7338,"RA_OF_ASC_NODE":8.651,"ARG_OF_PERICENTER":131.1097,"MEAN_ANOMALY":229.0212,"EPHEMERIS_TYPE":0,"CLASSIFICATION_TYPE":"U","NORAD_CAT_ID":43013,"ELEMENT_SET_NO":999,"REV_AT_EPOCH":37859,"BSTAR":0.00010421,"MEAN_MOTION_DOT":1.76e-6,"MEAN_MOTION_DDOT":0}]
