FGRST (GLAST)           
1 33053U 08029A   25068.71453273  .00006907  00000+0  29451-3 0  9991
2 33053  25.5814 180.8977 0008585 259.3134 100.6437 15.20256191924989
TDRS 11                 
1 39070U 13004A   25068.86506988  .00000065  00000+0  00000+0 0  9997
2 39070   2.9365  20.4731 0004462  16.7083 267.8150  1.00278820 42030
TDRS 12                 
1 39504U 14004A   25068.74859179 -.00000284  00000+0  00000+0 0  9994
2 39504   3.6251   9.7421 0002544 258.8951 127.5604  1.00276271 39627
GPM-CORE                
1 39574U 14009C   25068.89759246  .00014912  00000+0  32795-3 0  9998
2 39574  64.9781  63.3474 0012690 270.7900  89.1786 15.44114724626090
MMS 1                   
1 40482U 15011A   25068.91668981 -.00002537  00000+0  00000+0 0  9991
2 40482  61.5613 357.8874 8824319 157.3414 352.5930  0.28280575  1368
MMS 2                   
1 40483U 15011B   25068.91668981 -.00002537  00000+0  00000+0 0  9992
2 40483  61.5261 357.9070 8823178 157.3224 352.5871  0.28270083  1365
MMS 3                   
1 40484U 15011C   25068.91668981 -.00002536  00000+0  00000+0 0  9992
2 40484  61.5613 357.8911 8822327 157.3325 352.5835  0.28270457  1362
MMS 4                   
1 40485U 15011D   25068.91668981 -.00002539  00000+0  00000+0 0  9996
2 40485  61.5123 357.9169 8823664 157.2944 343.0128  0.28238747  1362
TDRS 13                 
1 42915U 17047A   25068.89836476 -.00000114  00000+0  00000+0 0  9997
2 42915   3.4807 350.8421 0011810 103.2716  25.6065  1.00271383 27692
NOAA 20 (JPSS-1)        
1 43013U 17073A   25068.85644220  .00000176  00000+0  10421-3 0  9995
2 43013  98.7338   8.6510 0001531 131.1097 229.0212 14.19566906378590
